#dP2024  7  7  0  0  0.00000000      97 __u+U IGS20 FIT  IAC
## 2322      0.00000000   900.00000000 60498 0.0000000000000
+  118   C06C07C08C09C10C11C12C13C14C16C19C20C21C22C23C24C25
+        C26C27C28C29C30C32C33C34C35C36C37C38C39C40C41C42C43
+        C44C45E02E03E04E05E07E08E09E10E11E12E13E14E15E18E19
+        E21E24E25E26E27E30E31E33E34E36G02G03G04G05G06G07G08
+        G09G10G11G12G13G14G15G16G17G18G19G20G21G22G23G24G25
+        G26G27G28G29G30G31G32J02J03J04R01R02R03R04R05R07R08
+        R09R11R12R13R14R15R16R17R18R19R20R21R22R24R25R26  0
++         7  7  7  7  7  7  7  7  9  7  6  6  5  6  5  6  6
++         6  5  5  6  6  6  6  6  6  6  6  6  6  6  6  6  6
++         6  6  4  4  4  4  4  4  4  4  4  4  4  4  4  5  4
++         4  4  4  4  4  4  4  4  4  4  3  3  3  3  3  3  3
++         3  3  3  3  3  3  4  3  3  3  3  3  3  3  3  3  3
++         3  3  3  4  3  3  3 11 11 11  7  6  6  6  7  6  6
++         7  6  6  7  6  6  6  6  6  7  7  7  7  6  8  8  0
%c M  cc GPS ccc cccc cccc cccc cccc ccccc ccccc ccccc ccccc
%c cc cc ccc ccc cccc cccc cccc cccc ccccc ccccc ccccc ccccc
%f  1.2500000  1.025000000  0.00000000000  0.000000000000000
%f  0.0000000  0.000000000  0.00000000000  0.000000000000000
%i    0    0    0    0      0      0      0      0         0
%i    0    0    0    0      0      0      0      0         0
/* INFORMATION & ANALYSIS CENTER (IAC)            FINAL DATA
/* S/V CLOCKS ARE ALIGNED TO GNSS TIME                      
/* G:C1WC2W R:C1PC2P E:C1XC5X C:C2IC6I J:C1CC2S             
/* PCV:IGS20_2317 OL/AL:FES2004  NONE     YN ORB:CoN CLK:CoN
*  2024 07 07  1 45  0.00000000
PC06  -3203.461603  26845.340221 -32194.483255    568.717820
PC07 -15908.519502  32133.503850  22096.327531   -572.744476
PC08  -7257.396926  41165.696482   6335.932187   -287.771943
PC09   6528.009882  30899.110069 -27145.053985      4.876580
PC10  -8719.690943  31945.943020  26141.216987    -64.204423
PC11 -26477.891065  -8728.092209   -939.402972    649.796488
PC12 -14121.523580 -16369.263068 -17607.472039   -262.098722
PC13  -3363.426601  42165.176013   1339.611688    438.700045
PC14 -18479.294721  -1389.884953  20849.512325    911.456177
PC16  -3451.815155  26026.793514 -32621.661668   -639.247259
PC19  22101.598702  -7693.568309 -15209.390924   -917.071898
PC20  13294.059250   8553.802946 -22996.271922   -656.992692
PC21   4598.954747 -21259.663788  17509.824535   -960.606113
PC22  18845.200797 -20530.296722   1773.154189     52.449938
PC23 -10032.417395  17140.686336 -19592.578436   -795.457751
PC24 -14219.766126 -21202.486021 -11249.587254    886.936045
PC25 -17191.261942  -2494.371247 -21842.773217    444.791757
PC26  -3623.492786 -27021.012435   5861.725122   -316.178274
PC27   4471.810745  16980.839489  21665.727554    337.221689
PC28 -13747.030958  11736.854834  21261.133566    259.636731
PC29  27044.925630   1307.763683  -6771.314937    304.794863
PC30  21764.987538  13233.176787  11370.022660   -124.330581
PC32  -4497.479588  21309.938044 -17425.860510   -666.313553
PC33 -22018.585759   7682.956703  15304.515964   -960.574545
PC34 -22882.433344 -12523.680883  -9950.792660    471.596880
PC35  13712.694346 -12133.907771 -21066.830613    319.576582
PC36  17123.049414   2693.977713  21899.692596    129.665760
PC37   3001.342781  27117.995346  -5905.558235   -927.762026
PC38 -11447.589909  37979.376249  14544.977800    165.686081
PC39  -9833.012016  22195.523713 -34382.916573     -9.049934
PC40 -23488.322928  26579.780314  22558.875572    -78.886909
PC41 -19214.197994  20201.775152   -821.007907   -949.061558
PC42 -11912.130350 -10171.153583  23131.212987   -450.943999
PC43 -27223.585227  -1988.447398   5827.446327     77.932445
PC44  -4929.790963 -16941.837697 -21643.052496    525.420500
PC45  10215.142158 -16739.946871  19850.428675   -101.822455
PE02  16037.059801 -22267.685791  11085.136698    141.294437
PE03  22507.981840 -13837.801709  13362.013199   -125.235959
PE04  -2065.854265  17353.273196 -23881.916002   -438.896395
PE05  29134.476605  -2264.896370  -4742.202886   4763.650389
PE07 -18452.127514 -10920.539130  20405.430694   -129.737449
PE08   3185.745066 -17306.386029  23805.277838   -298.712143
PE09  18380.917313  10836.893236 -20521.651567   -506.292399
PE10  14231.474431  24591.495727   8305.022205   -638.461264
PE11  20260.381863  21474.308846  -2084.774752   2440.930688
PE12   6621.578788  23816.126504  16263.137611  -1112.994848
PE13 -20021.387579 -21753.969919   1485.394415    -22.795300
PE14 -14683.651145 -13460.579721 -18716.533615    104.007668
PE15  -6167.854103 -23618.700869 -16744.928339   -113.248764
PE18  28871.631753   2876.826948   8922.818186    300.018755
PE19 -23968.108101  12756.539025 -11773.857213    244.848677
PE21 -18233.113004   3932.748236 -22979.036033   -604.009349
PE24   9697.365922  17684.433675  21659.689014   -859.633267
PE25  18168.666245  -3456.477653  23119.762743      6.595623
PE26 -21882.987813  -6605.077142  18801.862027    504.945510
PE27  -9860.099409 -17422.476662 -21797.118465   -393.831345
PE30   4325.334344 -28244.163451  -7723.301823   -480.452484
PE31  -4207.184960  28243.714014   7800.159000    -28.583359
PE33 -11467.241491  11180.475810  24889.567542     13.514687
PE34  11083.171892 -11617.739497 -24875.949184   -121.174368
PE36  21933.813423   7218.301154 -18520.420576   -251.403814
PG02 -22307.731065 -12876.176149   7578.321724   -403.932730
PG03 -14124.828608  -3743.812216  22015.366926    446.960065
PG04 -24588.928281  -2088.015615  10019.437609    398.531242
PG05   7263.417326  19157.762247 -17039.134072   -178.869714
PG06  -1773.419116  17451.281355  19969.279805    176.610154
PG07 -17472.758821   1864.208102 -19526.146531    -75.351820
PG08 -17593.642972  -8588.257107 -18248.759366    263.248391
PG09 -25425.089794   7688.941843  -1282.433752    263.160483
PG10  10455.283226 -23686.763564  -4873.531954    -59.817255
PG11  10136.802576  22429.069798  10084.691411   -700.100496
PG12  13290.693792   7302.323345  21528.517520   -520.186323
PG13   8884.139283  13701.944951 -21207.192928    662.872383
PG14 -13240.521614  21295.725845  -8373.369267    442.811714
PG15  18427.046819   7064.269853 -18366.507001    178.254211
PG16  -2843.445154 -21631.002881 -15161.633970   -243.818261
PG17 -18096.624096  13402.511545  14630.834472    682.388884
PG18  16583.840265  -2603.257886 -20619.111611   -633.722319
PG19  -9337.965825  14859.255753  19638.399180    506.817424
PG20   2850.557400  25238.280251  -7961.358937    373.036590
PG21 -21368.552199 -16606.006455   2314.150555    110.611376
PG22  -9691.953546  24900.109059    294.539742    -36.492006
PG23  14901.832925 -15398.342206 -15530.465335    267.777644
PG24  21854.641587  14734.101528   4315.653723   -481.936661
PG25  16222.335946  -4674.152918  20108.177664    498.244882
PG26   3732.045717 -26004.751241  -2290.844098    124.489861
PG27  -6199.583435 -14190.300584 -21895.782425    -30.467602
PG28   3737.038439 -16451.255043  20504.481375   -320.518161
PG29  26391.719880  -3102.369531   1652.528001   -590.810108
PG30  -9559.502551  12613.948402 -21158.647046   -362.128833
PG31  -6214.336982 -21463.024767  13838.130297   -226.947972
PG32  15449.921158 -15046.674698  15583.758753   -613.406887
PJ02 -26583.881389  31124.092614  -5280.809260     -0.488405
PJ03 -25598.842898  23204.518953  29284.120173     -1.052093
PJ04 -32620.229622  26430.149249   1299.286841     50.510089
PR01  16589.662797 -17341.245991   8669.296664     90.600760
PR02   3094.528372 -13976.060399  21139.855395    -23.598279
PR03 -13040.133498  -3325.794802  21726.841342    103.373946
PR04 -21534.216031   8737.468783  10558.321018    244.263688
PR05 -18722.701201  16149.801216  -6303.907873    134.184490
PR07  13503.759181   2830.470432 -21403.537950     86.122052
PR08  21502.646415  -9084.564092 -10188.609567     -5.662859
PR09   3618.785950  25171.141365   1317.305512    196.269527
PR11  10997.947965     -2.801315  23029.540310     19.003025
PR12   5762.352314 -19392.688269  15561.273098     42.152241
PR13  -1909.612295 -25399.186573   1377.474772    -49.063336
PR14  -9833.469742 -16469.118331 -16809.475459     26.670321
PR15 -10944.287396   1761.875244 -22947.574167     78.127654
PR16  -5646.595398  19246.233696 -15719.087712     27.123140
PR17 -21790.782026 -12535.829607  -4173.936864    102.349484
PR18 -21987.202494  -4747.310767  12079.911184    150.676341
PR19 -12695.027116   4234.743616  21707.524042   -282.955219
PR20   7961.396960  14194.509642  19632.212604   -115.727411
PR21  21577.990555  12848.808183   4561.271984   -115.402968
PR22  21520.437758   4359.157288 -12953.227382     92.478555
PR24  -8952.162650 -14282.766298 -19124.474701    -62.761388
PR25  21415.883638  13342.560793   3835.477274    -95.092289
PR26  21210.175981  -8330.281527 -11468.947864-138853.229307
EOF
